COMMENT,ORIGINATOR,NORAD_CAT_ID,OBJECT_NAME,OBJECT_TYPE,CLASSIFICATION_TYPE,INTLDES,EPOCH,EPOCH_MICROSECONDS,MEAN_MOTION,ECCENTRICITY,INCLINATION,RA_OF_ASC_NODE,ARG_OF_PERICENTER,MEAN_ANOMALY,EPHEMERIS_TYPE,ELEMENT_SET_NO,REV_AT_EPOCH,BSTAR,MEAN_MOTION_DOT,MEAN_MOTION_DDOT,FILE,TLE_LINE0,TLE_LINE1,TLE_LINE2,OBJECT_ID,OBJECT_NUMBER,SEMIMAJOR_AXIS,PERIOD,APOGEE,PERIGEE,DECAYED,date
GENERATED VIA SPACETRACK.ORG API,18 SPCS,48884,SPACEBEE-101,PAYLOAD,U,21059F,2023/3/22 21:01,191424,15.2527493,0.0007958,97.5825,216.9023,217.7949,142.273,0,999,9619,0.0014607,0.00036855,0,3868201,0 SPACEBEE-101,1 48884U 21059F   23081.87632166  .00036855  00000-0  14607-2 0  9999,2 48884  97.5825 216.9023 0007958 217.7949 142.2730 15.25274930 96193,2021-059F,48884,6868.097,94.409,495.428,484.496,0,
GENERATED VIA SPACETRACK.ORG API,18 SPCS,48884,SPACEBEE-101,PAYLOAD,U,21059F,2023/3/23 8:03,11968,15.25306597,0.0007956,97.5827,217.3676,216.3461,143.7237,0,999,9626,0.0013351,0.00033697,0,3868494,0 SPACEBEE-101,1 48884U 21059F   23082.33554412  .00033697  00000-0  13351-2 0  9994,2 48884  97.5827 217.3676 0007956 216.3461 143.7237 15.25306597 96267,2021-059F,48884,6868.002,94.407,495.331,484.403,0,
GENERATED VIA SPACETRACK.ORG API,18 SPCS,48884,SPACEBEE-101,PAYLOAD,U,21059F,2023/3/23 20:38,653856,15.25366027,0.0007804,97.583,217.8996,215.607,144.4648,0,999,9634,0.0021001,0.0005328,0,3868622,0 SPACEBEE-101,1 48884U 21059F   23082.86035479  .00053280  00000-0  21001-2 0  9990,2 48884  97.5830 217.8996 0007804 215.6070 144.4648 15.25366027 96348,2021-059F,48884,6867.824,94.404,495.048,484.329,0,
GENERATED VIA SPACETRACK.ORG API,18 SPCS,48884,SPACEBEE-101,PAYLOAD,U,21059F,2023/3/23 22:13,500768,15.25372041,0.0007774,97.5829,217.9661,215.4729,144.5992,0,999,9635,0.0020992,0.00053266,0,3868816,0 SPACEBEE-101,1 48884U 21059F   23082.92595487  .00053266  00000-0  20992-2 0  9999,2 48884  97.5829 217.9661 0007774 215.4729 144.5992 15.25372041 96358,2021-059F,48884,6867.805,94.403,495.01,484.331,0,
GENERATED VIA SPACETRACK.ORG API,18 SPCS,48884,SPACEBEE-101,PAYLOAD,U,21059F,2023/3/24 7:40,647392,15.25475556,0.0007787,97.5828,218.365,214.3111,145.7624,0,999,9641,0.004965,0.00127743,0,3869419,0 SPACEBEE-101,1 48884U 21059F   23083.31954453  .00127743  00000-0  49650-2 0  9999,2 48884  97.5828 218.3650 0007787 214.3111 145.7624 15.25475556 96414,2021-059F,48884,6867.495,94.397,494.708,484.012,0,
GENERATED VIA SPACETRACK.ORG API,18 SPCS,48884,SPACEBEE-101,PAYLOAD,U,21059F,2023/3/24 7:40,647392,15.25475556,0.0007787,97.5828,218.365,214.3111,145.7624,0,999,9641,0.004965,0.00127743,0,3869846,0 SPACEBEE-101,1 48884U 21059F   23083.31954453  .00127743  00000-0  49650-2 0  9999,2 48884  97.5828 218.3650 0007787 214.3111 145.7624 15.25475556 96414,2021-059F,48884,6867.495,94.397,494.708,484.012,0,
GENERATED VIA SPACETRACK.ORG API,18 SPCS,48884,SPACEBEE-101,PAYLOAD,U,21059F,2023/3/24 13:57,991328,15.254606,0.0007857,97.5829,218.6307,212.6925,147.3827,0,999,9645,0.0025756,0.00065654,0,3869679,0 SPACEBEE-101,1 48884U 21059F   23083.58193277  .00065654  00000-0  25756-2 0  9990,2 48884  97.5829 218.6307 0007857 212.6925 147.3827 15.25460600 96450,2021-059F,48884,6867.54,94.398,494.801,484.009,0,
GENERATED VIA SPACETRACK.ORG API,18 SPCS,48884,SPACEBEE-101,PAYLOAD,U,21059F,2023/3/24 20:15,846240,15.25477283,0.0007853,97.5829,218.8967,211.5319,148.5449,0,999,9649,0.0017836,0.00045342,0,3869913,0 SPACEBEE-101,1 48884U 21059F   23083.84431535  .00045342  00000-0  17836-2 0  9993,2 48884  97.5829 218.8967 0007853 211.5319 148.5449 15.25477283 96497,2021-059F,48884,6867.49,94.397,494.748,483.962,0,
GENERATED VIA SPACETRACK.ORG API,18 SPCS,48884,SPACEBEE-101,PAYLOAD,U,21059F,2023/3/24 21:50,259424,15.254834,0.0007815,97.5829,218.9634,211.2184,148.859,0,999,9650,0.0017408,0.00044254,0,3870109,0 SPACEBEE-101,1 48884U 21059F   23083.90991041  .00044254  00000-0  17408-2 0  9999,2 48884  97.5829 218.9634 0007815 211.2184 148.8590 15.25483400 96504,2021-059F,48884,6867.471,94.396,494.703,483.969,0,
GENERATED VIA SPACETRACK.ORG API,18 SPCS,48884,SPACEBEE-101,PAYLOAD,U,21059F,2023/3/25 21:27,732128,15.25569955,0.0007932,97.583,219.9603,207.6246,152.4571,0,999,9665,0.0015845,0.00040358,0,3871104,0 SPACEBEE-101,1 48884U 21059F   23084.89380477  .00040358  00000-0  15845-2 0  9997,2 48884  97.5830 219.9603 0007932 207.6246 152.4571 15.25569955 96657,2021-059F,48884,6867.212,94.391,494.524,483.629,0,
GENERATED VIA SPACETRACK.ORG API,18 SPCS,48884,SPACEBEE-101,PAYLOAD,U,21059F,2023/3/25 23:01,814400,15.25574624,0.0007938,97.5829,220.0267,207.4166,152.6654,0,999,9666,0.0015821,0.00040302,0,3871195,0 SPACEBEE-101,1 48884U 21059F   23084.95939600  .00040302  00000-0  15821-2 0  9995,2 48884  97.5829 220.0267 0007938 207.4166 152.6654 15.25574624 96663,2021-059F,48884,6867.197,94.391,494.514,483.611,0,
GENERATED VIA SPACETRACK.ORG API,18 SPCS,48884,SPACEBEE-101,PAYLOAD,U,21059F,2023/3/26 21:03,73184,15.25638779,0.0007952,97.5827,220.9576,204.7581,155.3276,0,999,9680,0.0013257,0.00033794,0,3871964,0 SPACEBEE-101,1 48884U 21059F   23085.87765131  .00033794  00000-0  13257-2 0  9991,2 48884  97.5827 220.9576 0007952 204.7581 155.3276 15.25638779 96808,2021-059F,48884,6867.005,94.387,494.331,483.409,0,
GENERATED VIA SPACETRACK.ORG API,18 SPCS,48884,SPACEBEE-101,PAYLOAD,U,21059F,2023/3/26 21:03,73184,15.25638779,0.0007952,97.5827,220.9576,204.7581,155.3276,0,999,9680,0.0013257,0.00033794,0,3872052,0 SPACEBEE-101,1 48884U 21059F   23085.87765131  .00033794  00000-0  13257-2 0  9991,2 48884  97.5827 220.9576 0007952 204.7581 155.3276 15.25638779 96808,2021-059F,48884,6867.005,94.387,494.331,483.409,0,
GENERATED VIA SPACETRACK.ORG API,18 SPCS,48884,SPACEBEE-101,PAYLOAD,U,21059F,2023/3/27 8:04,395776,15.25674315,0.0007927,97.5825,221.423,203.3529,156.7349,0,999,9687,0.0014617,0.00037326,0,3872569,0 SPACEBEE-101,1 48884U 21059F   23086.33676384  .00037326  00000-0  14617-2 0  9990,2 48884  97.5825 221.4230 0007927 203.3529 156.7349 15.25674315 96877,2021-059F,48884,6866.898,94.384,494.207,483.32,0,
GENERATED VIA SPACETRACK.ORG API,18 SPCS,48884,SPACEBEE-101,PAYLOAD,U,21059F,2023/3/27 22:14,976928,15.25716409,0.0007781,97.5828,222.0217,202.4728,157.617,0,999,9696,0.0013877,0.00035468,0,3872915,0 SPACEBEE-101,1 48884U 21059F   23086.92703677  .00035468  00000-0  13877-2 0  9993,2 48884  97.5828 222.0217 0007781 202.4728 157.6170 15.25716409 96964,2021-059F,48884,6866.772,94.382,493.98,483.294,0,
GENERATED VIA SPACETRACK.ORG API,18 SPCS,48884,SPACEBEE-101,PAYLOAD,U,21059F,2023/3/28 2:58,479328,15.25732588,0.000782,97.5826,222.2212,201.3195,158.7718,0,999,9699,0.0014911,0.00038148,0,3873024,0 SPACEBEE-101,1 48884U 21059F   23087.12379027  .00038148  00000-0  14911-2 0  9992,2 48884  97.5826 222.2212 0007820 201.3195 158.7718 15.25732588 96998,2021-059F,48884,6866.723,94.381,493.958,483.219,0,
GENERATED VIA SPACETRACK.ORG API,18 SPCS,48884,SPACEBEE-101,PAYLOAD,U,21059F,2023/3/28 2:58,479328,15.25732588,0.000782,97.5826,222.2212,201.3195,158.7718,0,999,9699,0.0014911,0.00038148,0,3873565,0 SPACEBEE-101,1 48884U 21059F   23087.12379027  .00038148  00000-0  14911-2 0  9992,2 48884  97.5826 222.2212 0007820 201.3195 158.7718 15.25732588 96998,2021-059F,48884,6866.723,94.381,493.958,483.219,0,
GENERATED VIA SPACETRACK.ORG API,18 SPCS,48884,SPACEBEE-101,PAYLOAD,U,21059F,2023/3/28 20:17,525376,15.25793196,0.0007803,97.5826,222.9528,198.9358,161.159,0,999,9710,0.0015915,0.00040811,0,3873921,0 SPACEBEE-101,1 48884U 21059F   23087.84520284  .00040811  00000-0  15915-2 0  9999,2 48884  97.5826 222.9528 0007803 198.9358 161.1590 15.25793196 97100,2021-059F,48884,6866.542,94.377,493.765,483.049,0,
GENERATED VIA SPACETRACK.ORG API,18 SPCS,48884,SPACEBEE-101,PAYLOAD,U,21059F,2023/3/29 8:52,906080,15.25838093,0.0007888,97.5826,223.4846,196.4557,163.6426,0,999,9718,0.0016401,0.00042124,0,3874315,0 SPACEBEE-101,1 48884U 21059F   23088.36984845  .00042124  00000-0  16401-2 0  9994,2 48884  97.5826 223.4846 0007888 196.4557 163.6426 15.25838093 97185,2021-059F,48884,6866.407,94.374,493.688,482.856,0,
GENERATED VIA SPACETRACK.ORG API,18 SPCS,48884,SPACEBEE-101,PAYLOAD,U,21059F,2023/3/29 8:52,906080,15.25838093,0.0007888,97.5826,223.4846,196.4557,163.6426,0,999,9718,0.0016401,0.00042124,0,3874492,0 SPACEBEE-101,1 48884U 21059F   23088.36984845  .00042124  00000-0  16401-2 0  9994,2 48884  97.5826 223.4846 0007888 196.4557 163.6426 15.25838093 97185,2021-059F,48884,6866.407,94.374,493.688,482.856,0,
GENERATED VIA SPACETRACK.ORG API,18 SPCS,48884,SPACEBEE-101,PAYLOAD,U,21059F,2023/3/29 19:53,24800,15.25877741,0.0007875,97.5826,223.9501,194.6487,165.4524,0,999,9725,0.0016263,0.00041817,0,3874790,0 SPACEBEE-101,1 48884U 21059F   23088.82890075  .00041817  00000-0  16263-2 0  9990,2 48884  97.5826 223.9501 0007875 194.6487 165.4524 15.25877741 97256,2021-059F,48884,6866.288,94.372,493.56,482.746,0,
GENERATED VIA SPACETRACK.ORG API,18 SPCS,48884,SPACEBEE-101,PAYLOAD,U,21059F,2023/3/30 8:29,889536,15.25923506,0.0007884,97.5825,224.4823,193.3643,166.7387,0,999,9733,0.0017086,0.0004401,0,3875726,0 SPACEBEE-101,1 48884U 21059F   23089.35351724  .00044010  00000-0  17086-2 0  9994,2 48884  97.5825 224.4823 0007884 193.3643 166.7387 15.25923506 97339,2021-059F,48884,6866.151,94.369,493.429,482.602,0,
GENERATED VIA SPACETRACK.ORG API,18 SPCS,48884,SPACEBEE-101,PAYLOAD,U,21059F,2023/3/31 0:13,467488,15.25986406,0.0007885,97.5827,225.1476,191.5151,168.5908,0,999,9743,0.0018864,0.0004872,0,3875788,0 SPACEBEE-101,1 48884U 21059F   23090.00926467  .00048720  00000-0  18864-2 0  9997,2 48884  97.5827 225.1476 0007885 191.5151 168.5908 15.25986406 97436,2021-059F,48884,6865.962,94.365,493.241,482.413,0,
